AMC-6                   
1 26580U 00067A   26171.39489199  .00000084  00000+0  00000+0 0  9993
2 26580   0.1614  83.1922 0003583  14.3540 178.1789  1.00270149 93924
USA 157 (MILSTAR-2 2)   
1 26715U 01009A   26171.41856404  .00000100  00000+0  00000+0 0  9999
2 26715  11.5467  19.7486 0039242 177.4528  72.0947  1.00276594 32970
TITAN 4 CENTAUR R/B     
1 26716U 01009B   26171.23311744  .00000104  00000+0  00000+0 0  9997
2 26716  12.6293  12.3226 0014518 144.2035 215.8879  1.00470338 26285
IUS R/B(2)              
1 26883U 01033D   26170.73663057  .00000077  00000+0  00000+0 0  9999
2 26883  12.9254  16.7081 0007039  12.1972 347.8148  0.99897549 25817
COSMOS 2379             
1 26892U 01037A   26171.45808733 -.00000346  00000+0  00000+0 0  9995
2 26892  13.2649  14.2572 0005760 241.8258 310.8830  1.00270632 90893
SL-12 R/B(2)            
1 26895U 01037D   26171.11935014  .00000004  00000+0  00000+0 0  9994
2 26895  13.2610  14.4935 0020512  80.5942 279.4093  1.00186555 90823
INTELSAT 902 (IS-902)   
1 26900U 01039A   26171.16820361 -.00000290  00000+0  00000+0 0  9994
2 26900   6.1243  71.7474 0004280  14.2873 192.7993  1.00270935 90729
SL-12 R/B(2)            
1 26939U 01045D   26171.11813681  .00000040  00000+0  00000+0 0  9997
2 26939  13.8900  12.0648 0026443  29.9686 326.0025  1.00223049 90752
ECHOSTAR 7              
1 27378U 02006A   26171.38782380 -.00000221  00000+0  00000+0 0  9995
2 27378   4.0235  77.3645 0002476 350.5984 319.1770  0.99848391 50563
INTELSAT 904 (IS-904)   
1 27380U 02007A   26171.10054338 -.00000233  00000+0  00000+0 0  9997
2 27380   6.9283  69.1510 0006584   7.3069 196.5436  1.00270151 51793
DIRECTV 5 (TEMPO 1)     
1 27426U 02023A   26171.41885338 -.00000063  00000+0  00000+0 0  9993
2 27426   4.8871  75.2720 0003240  16.1878 217.8431  1.00272003 88157
INTELSAT 905 (IS-905)   
1 27438U 02027A   26171.36475514  .00000087  00000+0  00000+0 0  9990
2 27438   6.7625  69.7638 0003977  23.7456 169.1624  1.00272920 51394
GALAXY 3C (G-3C)        
1 27445U 02030A   26171.35461541 -.00000158  00000+0  00000+0 0  9996
2 27445   3.7412  77.9368 0001690  28.7445 194.6953  1.00271504 46521
INTELSAT 906 (IS-906)   
1 27513U 02041A   26171.19082373  .00000006  00000+0  00000+0 0  9999
2 27513   5.8098  72.8851 0004435   0.9940 327.3730  1.00270726 87059
EUTELSAT 33B            
1 27554U 02051A   26171.32461470  .00000103  00000+0  00000+0 0  9997
2 27554   8.9871  59.8544 0014331 338.4173   6.8023  1.00249069 48826
NIMIQ 2                 
1 27632U 02062A   26171.26762638 -.00000078  00000+0  00000+0 0  9991
2 27632   9.4541  56.8684 0005585  25.9598 172.8061  1.00272421 44218
USA 167                 
1 27691U 03008A   26171.39171111 -.00000006  00000+0  00000+0 0  9992
2 27691  10.9686  43.3827 0003974 314.8643 289.6742  1.00272738  6808
TITAN 4 CENTAUR R/B     
1 27712U 03012B   26170.46849736 -.00000300  00000+0  00000+0 0  9990
2 27712  11.1676  23.2526 0022874 278.9931  80.7356  1.00584447 25813
INSAT-3A                
1 27714U 03013A   26171.09845556 -.00000288  00000+0  00000+0 0  9994
2 27714   8.8378  60.9728 0009608 339.4514 221.4703  0.99807856 84756
ASIASAT 4               
1 27718U 03014A   26171.46340469 -.00000228  00000+0  00000+0 0  9997
2 27718   4.7120  75.7059 0002905  15.9102 131.4326  1.00272462 45337
SL-12 R/B(2)            
1 27780U 03015F   26171.45006681 -.00000373  00000+0  00000+0 0  9992
2 27780  12.7533  20.3654 0010817  40.7195 136.3921  1.00235616 84539
GSAT-2                  
1 27807U 03018A   26171.32795931 -.00000250  00000+0  00000+0 0  9998
2 27807  11.1813  41.6608 0011906 349.4537 286.6952  0.99846776 84464
HELLAS-SAT 2            
1 27811U 03020A   26170.96224390 -.00000092  00000+0  00000+0 0  9995
2 27811   7.3623  67.8529 0002617  28.2464 148.4599  1.00271497 42873
THURAYA-2               
1 27825U 03026A   26171.25812353  .00000116  00000+0  00000+0 0  9997
2 27825   8.8445  31.9625 0002970  12.7773   0.6575  1.00272422 84382
OPTUS C1                
1 27831U 03028B   26170.56734134 -.00000159  00000+0  00000+0 0  9997
2 27831   6.8966  69.3822 0005580  14.9031 183.4988  1.00272247 53086
USA 170                 
1 27875U 03040A   26171.00919861  .00000116  00000+0  00000+0 0  9993
2 27875  10.5070  47.9240 0001755  42.2712 205.5706  1.00269476 33024
IABS R/B                
1 27877U 03040C   26170.46949549 -.00000310  00000+0  00000+0 0  9997
2 27877  13.3900  12.4394 0008940 325.8741  34.0646  1.00742697 25975
INSAT-3E                
1 27951U 03043E   26171.43706145 -.00000285  00000+0  00000+0 0  9995
2 27951   9.7113  54.0096 0012120 250.9158  43.6096  1.00806405 53838
GALAXY 13 (HORIZONS-1)  
1 27954U 03044A   26171.44697670  .00000128  00000+0  00000+0 0  9997
2 27954   1.4272  83.8231 0002186 358.3330 197.4020  1.00272486 46601
YAMAL 202               
1 28089U 03053A   26172.56555203 -.00000084  00000+0  00000+0 0  9998
2 28089   6.3538  70.8853 0003180   7.2732 198.7465  1.00270906 82744
YAMAL 201               
1 28094U 03053B   26170.69483929 -.00000156  00000+0  00000+0 0  9991
2 28094   9.6180  55.5124 0002964  96.6079  85.5302  1.00310832 84901
UFO 11 (USA 174)        
1 28117U 03057A   26171.12186348 -.00000114  00000+0  00000+0 0  9999
2 28117   8.9416  33.8126 0002415  64.0509 289.9601  1.00271747 82473
SL-12 R/B(2)            
1 28139U 03060D   26171.11744347  .00000055  00000+0  00000+0 0  9998
2 28139  13.5637  13.7180 0018038 235.5814 114.6113  1.00296623 82059
USA 176 (DSP 22)        
1 28158U 04004A   26171.14049326 -.00000306  00000+0  00000+0 0  9996
2 28158  12.0668  26.0523 0001387 309.2865 294.2599  1.00275597 32965
IUS R/B(2)              
1 28161U 04004D   26171.34510297 -.00000156  00000+0  00000+0 0  9995
2 28161  12.1815  26.2576 0004771  26.1501 333.8626  0.99828712 25420
ABS-4 (MOBISAT-1)       
1 28184U 04007A   26171.26294977  .00000032  00000+0  00000+0 0  9990
2 28184   6.0489  71.9702 0005075  16.4739 335.6938  1.00274282 52364
RADUGA-1 7              
1 28194U 04010A   26171.25500352  .00000109  00000+0  00000+0 0  9996
2 28194  13.6807  20.7331 0004053 236.3742 131.4799  1.00218676 81459
SL-12 R/B(2)            
1 28240U 04015D   26170.85877913 -.00000064  00000+0  00000+0 0  9999
2 28240  13.3223  14.3498 0016527 332.2880 217.0800  1.00707981 81435
SL-12 R/B(2)            
1 28256U 04010F   26171.22304881  .00000057  00000+0  00000+0 0  9993
2 28256  13.7233  20.9376 0026553  12.5251 182.3863  1.00101957 80696
INTELSAT 10-02          
1 28358U 04022A   26171.39181049 -.00000016  00000+0  00000+0 0  9992
2 28358   0.0164 305.9154 0000101 152.4907 310.2364  1.00270649 80585
ANIK F2                 
1 28378U 04027A   26171.36017014 -.00000055  00000+0  00000+0 0  9999
2 28378   3.2965  79.4060 0004092  10.0614 197.6315  1.00271596 41297
AMC-15                  
1 28446U 04041A   26171.36017014 -.00000093  00000+0  00000+0 0  9993
2 28446   0.0144 359.6314 0002305  75.3144 218.2288  1.00271527 79338
SL-12 R/B(2)            
1 28466U 04043D   26171.47730345 -.00000379  00000+0  00000+0 0  9995
2 28466  13.2175  16.4371 0007443 161.8167  18.5493  1.00129126 79140
NSS-10                  
1 28526U 05003A   26171.28277340 -.00000258  00000+0  00000+0 0  9995
2 28526   6.4581  70.4174 0002852  12.1151 250.3009  1.00272014 53183
INMARSAT 4-F1           
1 28628U 05009A   26171.35600177  .00000026  00000+0  00000+0 0  9992
2 28628   5.1732  42.7714 0002706  45.6778 126.3856  1.00271541 77706
SL-12 R/B(2)            
1 28634U 05010F   26171.18744370  .00000094  00000+0  00000+0 0  9991
2 28634  13.1272  18.3896 0021659 268.1475  96.4055  1.00251305 77732
DIRECTV 8               
1 28659U 05019A   26171.31433647 -.00000003  00000+0  00000+0 0  9995
2 28659   0.0188  33.3038 0003095  61.8276 167.4965  1.00271999 77107
GALAXY 28 (G-28)        
1 28702U 05022A   26171.38661045 -.00000205  00000+0  00000+0 0  9994
2 28702   3.3063  78.8948 0002814  10.7889 291.0100  1.00270752 52002
SL-12 R/B(2)            
1 28704U 05023H   26171.43059020  .00000067  00000+0  00000+0 0  9992
2 28704  12.9084  18.8202 0011687 331.1411 281.4971  1.00810099 77234
THAICOM 4               
1 28786U 05028A   26171.44628647 -.00000367  00000+0  00000+0 0  9999
2 28786   0.2549  85.8466 0001774 349.9796 112.9969  1.00271473 52285
ANIK F1R                
1 28868U 05036A   26171.43342742 -.00000080  00000+0  00000+0 0  9999
2 28868   4.3220  76.5421 0004175   5.3355 235.5023  1.00271216 46480
SYRACUSE 3A             
1 28885U 05041B   26170.96159780  .00000122  00000+0  00000+0 0  9995
2 28885   4.6490  75.8044 0002929   5.3723 219.8458  1.00269106 75774
INMARSAT 4-F2           
1 28899U 05044A   26170.99265009 -.00000268  00000+0  00000+0 0  9990
2 28899   5.0996  43.7044 0002972  35.9627 329.3724  1.00270761 75557
METEOSAT-9 (MSG-2)      
1 28912U 05049B   26170.92883707  .00000115  00000+0  00000+0 0  9995
2 28912   9.3683  54.1432 0001774 346.4633 247.5699  1.00273646  7020
EUTELSAT 174A           
1 28924U 05052A   26171.35522177  .00000003  00000+0  00000+0 0  9997
2 28924   4.2287  76.4905 0006308  11.1427 122.7677  1.00272302 52369
ECHOSTAR 10             
1 28935U 06003A   26171.36017014 -.00000060  00000+0  00000+0 0  9990
2 28935   0.0164   1.1897 0001430  77.7268 209.1028  1.00270944 74494
SPAINSAT                
1 28945U 06007A   26171.33795515 -.00000221  00000+0  00000+0 0  9990
2 28945   0.5725  86.4734 0004829 359.2835 274.2855  1.00272395 74248
EKRAN 2 DEB             
1 29014U 77092K   26171.21162073 -.00000053  00000+0  00000+0 0  9997
2 29014   4.1256 274.2224 0019612 347.8516 252.0329  1.00158958 47306
JCSAT-5A                
1 29045U 06010A   26171.48584654 -.00000332  00000+0  00000+0 0  9995
2 29045   1.1192  84.1884 0002010 350.8139 140.6470  1.00271456 73807
ASTRA 1KR               
1 29055U 06012A   26171.32444138  .00000114  00000+0  00000+0 0  9990
2 29055   0.4831  83.2137 0003417   1.9229 319.1766  1.00273147 45727
